{
"type": "FeatureCollection",
"name": "aesr_shift_pilot_3",
"crs": { "type": "name", "properties": { "name": "urn:ogc:def:crs:OGC:1.3:CRS84" } },
"features": [
{ "type": "Feature", "properties": { "PILOT_ID": "P3", "FEATURE_ID": "AESR_16_3_P01", "AESR_UID": "AESR_16_3", "aesr_code": "16.3", "aer_code": 16, "subregion": "Arunachal Pradesh (subdued Eastern Himalayas)", "CLIM_STD": "Perhumid", "lgp_ref": ">300 days", "SOIL_GRP": "Red Loamy", "AWC_REF": "Low to Medium", "AREA_KM2": 77188.785079176407, "PILOT_ROLE": "Perhumid reference system", "EVIDENCE_LEVEL": "E2 - Preliminary derived evidence" }, "geometry": { "type": "Polygon", "coordinates": [ [ [ 96.1904611, 29.342006 ], [ 96.0857217, 29.4613866 ], [ 96.0607101, 29.4564681 ], [ 95.962104, 29.3806701 ], [ 95.8859452, 29.3896235 ], [ 95.853299299999989, 29.3567407 ], [ 95.8015044, 29.3344363 ], [ 95.782726, 29.3545838 ], [ 95.732041400000014, 29.3005773 ], [ 95.7069125, 29.2985595 ], [ 95.6429511, 29.2479392 ], [ 95.6037163, 29.2600491 ], [ 95.5906845, 29.2160742 ], [ 95.54263, 29.2121441 ], [ 95.5514876, 29.1265614 ], [ 95.5010873, 29.1383269 ], [ 95.4875768, 29.0689945 ], [ 95.4588642, 29.034811 ], [ 95.4146958, 29.0319938 ], [ 95.3074945, 29.0610186 ], [ 95.2722961, 29.0477222 ], [ 95.2549262, 29.0667386 ], [ 95.2556545, 29.1081619 ], [ 95.1268153, 29.1147152 ], [ 95.103533399999989, 29.1423581 ], [ 95.0028163, 29.1717711 ], [ 94.9920182, 29.1723136 ], [ 95.0279685, 29.1292466 ], [ 94.8772605, 29.1832266 ], [ 94.803458, 29.16358 ], [ 94.8034959, 29.2090701 ], [ 94.783079199999989, 29.2402769 ], [ 94.7169886, 29.3037258 ], [ 94.634285, 29.3481532 ], [ 94.625033, 29.3123002 ], [ 94.583747, 29.2802406 ], [ 94.5637712, 29.228283 ], [ 94.5003564, 29.2160765 ], [ 94.4371474, 29.2263228 ], [ 94.378201, 29.1897112 ], [ 94.362781399999989, 29.1519998 ], [ 94.2936266, 29.1476189 ], [ 94.220485, 29.0835002 ], [ 94.1606705, 28.9539847 ], [ 94.0720097, 28.8952887 ], [ 94.035471199999989, 28.8526041 ], [ 94.0003266, 28.8405343 ], [ 93.9905739, 28.797397 ], [ 94.0066713, 28.7745845 ], [ 93.9737116, 28.7504196 ], [ 93.9620724, 28.7036578 ], [ 93.931187799999989, 28.6707394 ], [ 93.8492458, 28.7064704 ], [ 93.7803866, 28.6676072 ], [ 93.736853700000012, 28.6884355 ], [ 93.6254051, 28.6569411 ], [ 93.5392339, 28.6581352 ], [ 93.496621100000013, 28.683318 ], [ 93.4796465, 28.6529759 ], [ 93.4511931, 28.6754175 ], [ 93.4173482, 28.65228 ], [ 93.3424528, 28.639574 ], [ 93.3331305, 28.6076778 ], [ 93.305347700000013, 28.598941 ], [ 93.3106786, 28.5655957 ], [ 93.2812084, 28.5041027 ], [ 93.1878954, 28.4392481 ], [ 93.2366343, 28.3998753 ], [ 93.2239648, 28.3328087 ], [ 93.1987293, 28.3171239 ], [ 93.1298281, 28.3259616 ], [ 93.1003951, 28.3062311 ], [ 93.0269957, 28.2991422 ], [ 93.0387826, 28.262284 ], [ 93.0053337, 28.2299254 ], [ 92.969587499999989, 28.2610141 ], [ 92.9180103, 28.234235 ], [ 92.9002639, 28.2038025 ], [ 92.8329618, 28.1707033 ], [ 92.821255799999989, 28.200863 ], [ 92.804737100000011, 28.201497 ], [ 92.6920494, 28.1250633 ], [ 92.6678663, 28.0619803 ], [ 92.7003286, 28.0475407 ], [ 92.7441978, 27.9884887 ], [ 92.6738213, 27.8991733 ], [ 92.609693299999989, 27.8765852 ], [ 92.5652556, 27.8200889 ], [ 92.5059894, 27.8406141 ], [ 92.459567, 27.8023684 ], [ 92.4115032, 27.8212513 ], [ 92.3876976, 27.8147478 ], [ 92.3845295, 27.7941886 ], [ 92.3206953, 27.7774305 ], [ 92.2895015, 27.8068014 ], [ 92.2689432, 27.8572314 ], [ 92.2153816, 27.8583222 ], [ 92.1611113, 27.83636 ], [ 92.0603443, 27.7584816 ], [ 91.98889770000001, 27.7693984 ], [ 91.923761, 27.7145022 ], [ 91.8656125, 27.736389 ], [ 91.8294752, 27.8098806 ], [ 91.7516017, 27.8029155 ], [ 91.6995426, 27.8217282 ], [ 91.6748263, 27.856341 ], [ 91.558138899999989, 27.858258 ], [ 91.5709931, 27.8149744 ], [ 91.6043285, 27.8204927 ], [ 91.6335876, 27.8004429 ], [ 91.6453717, 27.757572 ], [ 91.6290121, 27.705528 ], [ 91.6016375, 27.6921227 ], [ 91.5629292, 27.6330146 ], [ 91.5812558, 27.6078271 ], [ 91.5718633, 27.5745419 ], [ 91.6580731, 27.4823905 ], [ 91.6949337, 27.5021494 ], [ 91.7247682, 27.4697223 ], [ 91.7784889, 27.4638495 ], [ 91.8537863, 27.4818436 ], [ 91.9539063, 27.4600679 ], [ 92.0232328, 27.4789246 ], [ 92.0235976, 27.4467798 ], [ 92.0587728, 27.3992187 ], [ 92.0629573, 27.3262537 ], [ 92.124652, 27.2865514 ], [ 92.1056369, 27.268093 ], [ 92.0740882, 27.2763702 ], [ 92.0436664, 27.2657021 ], [ 92.0736076, 27.2226241 ], [ 92.0601747, 27.1885622 ], [ 92.0291478, 27.1707438 ], [ 92.0315538, 27.0775053 ], [ 92.1068707, 27.0065761 ], [ 92.1208789, 26.9590109 ], [ 92.1112737, 26.8925889 ], [ 92.1981436, 26.8896778 ], [ 92.2578147, 26.9108662 ], [ 92.2796009, 26.901082 ], [ 92.3069598, 26.9081325 ], [ 92.3060927, 26.922809 ], [ 92.3562404, 26.9341287 ], [ 92.3367354, 26.8880893 ], [ 92.3361587, 26.7709332 ], [ 92.4067827, 26.6481316 ], [ 92.3893675, 26.6180502 ], [ 92.7534547, 26.8012384 ], [ 93.1427713, 26.8148444 ], [ 93.470130400000016, 26.936117 ], [ 93.6776283, 26.9680106 ], [ 93.720817, 27.0161481 ], [ 93.7703592, 27.0401697 ], [ 93.775584, 27.0592403 ], [ 93.7892973, 27.0510808 ], [ 93.8386216, 27.0750138 ], [ 93.8106116, 27.1486784 ], [ 93.9586474, 27.2916507 ], [ 94.0021664, 27.3315712 ], [ 94.0630751, 27.3603642 ], [ 94.1594742, 27.4748587 ], [ 94.2619835, 27.5201995 ], [ 94.258823299999989, 27.5541986 ], [ 94.2288656, 27.5724652 ], [ 94.2135862, 27.6077568 ], [ 94.2547244, 27.6378159 ], [ 94.2696252, 27.6247099 ], [ 94.25653, 27.6105495 ], [ 94.2784072, 27.5901305 ], [ 94.3003874, 27.6010413 ], [ 94.3697263, 27.5733577 ], [ 94.4332679, 27.5996261 ], [ 94.4618483, 27.5541427 ], [ 94.5283898, 27.5921554 ], [ 94.6845757, 27.6458013 ], [ 94.6915103, 27.6634183 ], [ 94.7447087, 27.6595467 ], [ 94.8414057, 27.6995689 ], [ 94.8679656, 27.741639 ], [ 95.0331924, 27.7705808 ], [ 95.3184363, 27.866583 ], [ 95.3860954, 27.837289 ], [ 95.5176582, 27.8768791 ], [ 95.5729934, 27.9374838 ], [ 95.6085121, 27.9528347 ], [ 95.8274713, 27.9720318 ], [ 95.9788672, 27.9628018 ], [ 95.9298693, 27.8847738 ], [ 95.8243595, 27.8035432 ], [ 95.7817067, 27.7524939 ], [ 95.785935, 27.7340115 ], [ 95.7593645, 27.7253752 ], [ 95.775594, 27.6908534 ], [ 95.7941611, 27.6863829 ], [ 95.7788256, 27.6603378 ], [ 95.8023738, 27.6430037 ], [ 95.7880026, 27.6173747 ], [ 95.8249875, 27.5968668 ], [ 95.8219911, 27.5755315 ], [ 95.8676697, 27.5447391 ], [ 96.005428099999989, 27.556273 ], [ 96.065056, 27.6059533 ], [ 96.129325799999989, 27.6191799 ], [ 96.2116387, 27.5793339 ], [ 96.2992522, 27.5579405 ], [ 96.3554229, 27.6241436 ], [ 96.4165192, 27.6508487 ], [ 96.6071603, 27.6463314 ], [ 96.6617533, 27.6333407 ], [ 96.7036072, 27.6600569 ], [ 96.7502688, 27.6321964 ], [ 96.9128463, 27.6186135 ], [ 96.9485853, 27.6625858 ], [ 96.990651, 27.6620869 ], [ 97.0156367, 27.7317923 ], [ 97.0674229, 27.7507792 ], [ 97.0962584, 27.7408857 ], [ 97.102381, 27.7844788 ], [ 97.1602752, 27.8135768 ], [ 97.2564811, 27.9004894 ], [ 97.3087282, 27.9208206 ], [ 97.3210847, 27.8802173 ], [ 97.388883299999989, 27.8869113 ], [ 97.3781447, 27.9769807 ], [ 97.4152927, 28.0149186 ], [ 97.377276099999989, 28.030091 ], [ 97.3737954, 28.0613389 ], [ 97.3319685, 28.0565612 ], [ 97.308106, 28.0684079 ], [ 97.3394495, 28.1108843 ], [ 97.331334, 28.1544688 ], [ 97.3641487, 28.1879816 ], [ 97.401125, 28.1919336 ], [ 97.2829307, 28.2682462 ], [ 97.2421262, 28.2672203 ], [ 97.2252185, 28.2921071 ], [ 97.174905099999989, 28.291399 ], [ 97.1530986, 28.3265325 ], [ 97.0938309, 28.3624456 ], [ 97.0530924, 28.3508922 ], [ 96.9977247, 28.309067 ], [ 96.9272542, 28.33813 ], [ 96.9001467, 28.3791861 ], [ 96.853711, 28.3617071 ], [ 96.7759576, 28.3676203 ], [ 96.7527643, 28.4154467 ], [ 96.6664901, 28.4598305 ], [ 96.5815783, 28.4573334 ], [ 96.5122058, 28.412585 ], [ 96.460258599999989, 28.4136089 ], [ 96.4339642, 28.386111 ], [ 96.424740899999989, 28.3452554 ], [ 96.4012851, 28.3388233 ], [ 96.3729616, 28.3888261 ], [ 96.3219327, 28.3807595 ], [ 96.30676170000001, 28.3994052 ], [ 96.2659405, 28.4081777 ], [ 96.3751968, 28.4817938 ], [ 96.3280932, 28.5290027 ], [ 96.3570548, 28.5555871 ], [ 96.4090189, 28.5589286 ], [ 96.403401699999989, 28.5892991 ], [ 96.430507, 28.5820657 ], [ 96.4965729, 28.6331125 ], [ 96.4753908, 28.6833182 ], [ 96.5885824, 28.7165568 ], [ 96.618756, 28.7736479 ], [ 96.5405507, 28.8796549 ], [ 96.5221708, 28.9668197 ], [ 96.490891499999989, 28.9612186 ], [ 96.4808426, 28.9900178 ], [ 96.5288327, 29.0754184 ], [ 96.4393808, 29.033775 ], [ 96.3503856, 29.0285985 ], [ 96.2973393, 28.9950615 ], [ 96.2518278, 28.9391029 ], [ 96.170049, 28.9022451 ], [ 96.1488744, 28.9339235 ], [ 96.1885574, 28.9846203 ], [ 96.1543102, 29.0498819 ], [ 96.1185252, 29.0744655 ], [ 96.1896164, 29.0914242 ], [ 96.2215857, 29.1349667 ], [ 96.2643101, 29.1570099 ], [ 96.3504082, 29.1677699 ], [ 96.3970556, 29.2534107 ], [ 96.3675124, 29.2826813 ], [ 96.2972753, 29.2328159 ], [ 96.2478857, 29.2322235 ], [ 96.1876702, 29.3066706 ], [ 96.1904611, 29.342006 ] ] ] } },
{ "type": "Feature", "properties": { "PILOT_ID": "P2", "FEATURE_ID": "AESR_10_3_P01", "AESR_UID": "AESR_10_3", "aesr_code": "10.3", "aer_code": 10, "subregion": "Vindhyan Scarpland and Baghelkhand Plateau", "CLIM_STD": "Dry subhumid", "lgp_ref": "150-180 days", "SOIL_GRP": "Mixed Red-Black", "AWC_REF": "Medium to High", "AREA_KM2": 64542.847256541201, "PILOT_ROLE": "Dry-subhumid reference system", "EVIDENCE_LEVEL": "E2 - Preliminary derived evidence" }, "geometry": { "type": "Polygon", "coordinates": [ [ [ 78.9179456, 25.5541396 ], [ 78.8765361, 25.545958 ], [ 78.8835328, 25.519124 ], [ 78.8358051, 25.5047926 ], [ 78.8646226, 25.4619883 ], [ 78.8416569, 25.4273206 ], [ 78.821279300000015, 25.4411556 ], [ 78.8531908, 25.449246 ], [ 78.8373157, 25.460532 ], [ 78.7969442, 25.4783291 ], [ 78.7639445, 25.4709687 ], [ 78.7391391, 25.4954457 ], [ 78.7320093, 25.4581288 ], [ 78.7624271, 25.4286902 ], [ 78.7968374, 25.4368697 ], [ 78.8203029, 25.4252913 ], [ 78.7504645, 25.4075505 ], [ 78.7488643, 25.3934476 ], [ 78.7669524, 25.3969383 ], [ 78.7716505, 25.3532944 ], [ 78.7208513, 25.3478739 ], [ 78.7162903, 25.3736213 ], [ 78.6651224, 25.3828314 ], [ 78.6637685, 25.4149625 ], [ 78.676345, 25.3987228 ], [ 78.7087078, 25.4236916 ], [ 78.6930719, 25.4426117 ], [ 78.659983900000015, 25.4388179 ], [ 78.6409328, 25.4328741 ], [ 78.6358133, 25.4012942 ], [ 78.6107166, 25.4118961 ], [ 78.5955137, 25.3869433 ], [ 78.5682755, 25.3905235 ], [ 78.5833395, 25.3467913 ], [ 78.5322549, 25.3578569 ], [ 78.5485277, 25.3214728 ], [ 78.5321322, 25.3014029 ], [ 78.5072789, 25.2990024 ], [ 78.4992052, 25.3186903 ], [ 78.474047, 25.2878832 ], [ 78.4475675, 25.2990187 ], [ 78.4343035, 25.2835399 ], [ 78.460973, 25.2654859 ], [ 78.5037001, 25.2887384 ], [ 78.5714236, 25.2601159 ], [ 78.604089, 25.092891 ], [ 78.6272602, 25.0866286 ], [ 78.6488655, 25.0565441 ], [ 78.6288862, 24.9600266 ], [ 78.6473366, 24.935499 ], [ 78.6605597, 24.939359 ], [ 78.6752263, 24.8975805 ], [ 78.7740473, 24.8509139 ], [ 78.787941800000013, 24.8057936 ], [ 78.7713801, 24.7902797 ], [ 78.7791535, 24.6994897 ], [ 78.7467681, 24.6553417 ], [ 78.7561353, 24.6003988 ], [ 78.7835786, 24.5885325 ], [ 78.835525, 24.6032566 ], [ 78.8798699, 24.6423798 ], [ 78.9514652, 24.5517357 ], [ 78.9509366, 24.5050776 ], [ 78.9731744, 24.4925389 ], [ 78.9374679, 24.4801258 ], [ 78.9243282, 24.4980731 ], [ 78.9093367, 24.4739461 ], [ 78.9511329, 24.4388887 ], [ 78.9887488, 24.442879 ], [ 78.9945194, 24.4236234 ], [ 78.9735569, 24.3493742 ], [ 78.9136577, 24.2921672 ], [ 79.0105318, 24.1851122 ], [ 79.1861432, 24.1325457 ], [ 79.3560377, 24.1333523 ], [ 79.9083226, 23.9690106 ], [ 80.3112575, 23.9443592 ], [ 80.6246332, 24.065217 ], [ 80.7998652, 24.0838939 ], [ 80.8845465, 24.0493211 ], [ 80.8670293, 23.8106606 ], [ 80.7711217, 23.7137192 ], [ 80.6068397, 23.6657318 ], [ 80.5535852, 23.5830978 ], [ 80.5580971, 23.4027914 ], [ 80.594741, 23.3344354 ], [ 80.7631353, 23.2557231 ], [ 80.8792487, 23.2697159 ], [ 81.0110213, 23.2591538 ], [ 81.1475729, 23.1948416 ], [ 81.2312153, 23.1210979 ], [ 81.2411014, 23.0528001 ], [ 81.2135967, 22.9263342 ], [ 81.265724, 22.877184 ], [ 81.6734003, 22.6832143 ], [ 81.7062245, 22.6455705 ], [ 81.7303077, 22.6758909 ], [ 81.7562931, 22.6458259 ], [ 81.7733529, 22.6758316 ], [ 81.7539893, 22.7261147 ], [ 81.7916851, 22.7662256 ], [ 81.7682605, 22.8338262 ], [ 81.7768183, 22.8729544 ], [ 81.8637639, 22.8903617 ], [ 81.8674485, 22.914463 ], [ 81.947704, 22.9565835 ], [ 81.9446897, 23.0088968 ], [ 81.9258974, 23.0403258 ], [ 81.9455832, 23.077123 ], [ 82.031581, 23.0795066 ], [ 82.0746414, 23.1162067 ], [ 82.123376, 23.1032448 ], [ 82.158573, 23.1411618 ], [ 82.161273, 23.1574318 ], [ 82.1448471, 23.1643456 ], [ 82.1500101, 23.2269967 ], [ 82.1970125, 23.2838543 ], [ 82.3256005, 23.629762 ], [ 82.4326369, 23.696324 ], [ 82.4904222, 23.7963643 ], [ 82.5043764, 23.7839329 ], [ 82.5479829, 23.7901097 ], [ 82.5350816, 23.8229311 ], [ 82.5937152, 23.821765 ], [ 82.6611044, 23.856705 ], [ 82.6642661, 23.9067229 ], [ 82.7096989, 23.9238154 ], [ 82.755857, 23.9212079 ], [ 82.815532, 23.9619833 ], [ 82.8050509, 24.0040053 ], [ 82.760141, 24.007254 ], [ 82.7497977, 24.0201963 ], [ 82.774081099999989, 24.0766106 ], [ 82.7162403, 24.0794598 ], [ 82.6652689, 24.1333862 ], [ 82.6787211, 24.1570387 ], [ 82.728212, 24.1376293 ], [ 82.7440154, 24.1669587 ], [ 82.7349006, 24.221793 ], [ 82.7578235, 24.2346734 ], [ 82.772048, 24.2909122 ], [ 82.768549, 24.3714289 ], [ 82.7264745, 24.3695718 ], [ 82.7151241, 24.3835021 ], [ 82.7407006, 24.4310337 ], [ 82.7317842, 24.474565 ], [ 82.74459, 24.4979851 ], [ 82.7236733, 24.51148 ], [ 82.7205923, 24.5543583 ], [ 82.7492656, 24.5527486 ], [ 82.754091699999989, 24.5396955 ], [ 82.8088301, 24.5508911 ], [ 82.804461500000016, 24.5979088 ], [ 82.7681597, 24.597939 ], [ 82.770887700000017, 24.6437427 ], [ 82.7032801, 24.6422794 ], [ 82.7040762, 24.6737097 ], [ 82.6660757, 24.6983238 ], [ 82.5374058, 24.6498325 ], [ 82.5265714, 24.6761681 ], [ 82.4569998, 24.6756717 ], [ 82.4404794, 24.7040134 ], [ 82.4097661, 24.6815302 ], [ 82.41729, 24.5956606 ], [ 82.3689591, 24.5997793 ], [ 82.3378971, 24.6214891 ], [ 82.3020455, 24.6114526 ], [ 82.3045775, 24.6676679 ], [ 82.2715493, 24.6840173 ], [ 82.2612095, 24.663715 ], [ 82.2380932, 24.6672431 ], [ 82.2518743, 24.7732487 ], [ 82.2465698, 24.7519263 ], [ 82.2291461, 24.7645387 ], [ 82.231014, 24.7492515 ], [ 82.207695199999989, 24.7495615 ], [ 82.2215865, 24.741717 ], [ 82.2219385, 24.7261915 ], [ 82.2108194, 24.7383058 ], [ 82.1810883, 24.7370462 ], [ 82.2038815, 24.7612229 ], [ 82.1975871, 24.7797289 ], [ 82.2176959, 24.7789555 ], [ 82.2169575, 24.795216 ], [ 82.1872503, 24.802067 ], [ 82.2042208, 24.8219243 ], [ 82.1676269, 24.7896691 ], [ 82.140478700000017, 24.8018595 ], [ 82.120424, 24.789632 ], [ 82.0901278, 24.8194275 ], [ 82.0131488, 24.8479102 ], [ 81.9674047, 24.8278195 ], [ 81.9047265, 24.8896052 ], [ 81.920346100000017, 24.9279882 ], [ 81.9068107, 25.006591 ], [ 81.8944889, 24.9898017 ], [ 81.8377353, 25.0162385 ], [ 81.7975674, 25.007032 ], [ 81.7407607, 25.0455193 ], [ 81.6902551, 25.0405463 ], [ 81.6670702, 25.0764479 ], [ 81.6302688, 25.0536353 ], [ 81.6127224, 25.0574396 ], [ 81.6021727, 25.0764708 ], [ 81.640349, 25.0999452 ], [ 81.625157, 25.1192683 ], [ 81.6096211, 25.0968615 ], [ 81.6005326, 25.1329982 ], [ 81.6274238, 25.1562624 ], [ 81.6184206, 25.1702418 ], [ 81.5902147, 25.1648402 ], [ 81.596459700000011, 25.1803501 ], [ 81.5748518, 25.1922859 ], [ 81.5180233, 25.1835394 ], [ 81.5384422, 25.1598811 ], [ 81.533063, 25.1401922 ], [ 81.5038317, 25.1488748 ], [ 81.4980065, 25.1307654 ], [ 81.481267, 25.133647 ], [ 81.5159576, 25.1033911 ], [ 81.4920813, 25.0715347 ], [ 81.4092172, 25.1042711 ], [ 81.4467243, 25.1069607 ], [ 81.4386069, 25.1301207 ], [ 81.3996096, 25.1196082 ], [ 81.3383402, 25.1688748 ], [ 81.3213541, 25.1599277 ], [ 81.323029, 25.1127099 ], [ 81.3147862, 25.1623564 ], [ 81.2775123, 25.1640839 ], [ 81.2831553, 25.1497774 ], [ 81.2540303, 25.1019357 ], [ 81.2698915, 25.064892 ], [ 81.2099561, 24.992182 ], [ 81.2208129, 24.931043 ], [ 81.192635, 24.9257321 ], [ 81.207171, 24.9312675 ], [ 81.169648, 24.954971 ], [ 81.1406141, 24.8885796 ], [ 81.0846204, 24.9486631 ], [ 81.0348633, 24.9513336 ], [ 81.0274165, 24.9413711 ], [ 81.0177002, 24.9506742 ], [ 81.0249561, 24.9288434 ], [ 80.9804117, 24.9359408 ], [ 80.9633689, 24.9220631 ], [ 80.9449938, 24.9687916 ], [ 80.9054338, 24.952993 ], [ 80.9081833, 24.9358712 ], [ 80.8103131, 24.9406826 ], [ 80.7981026, 24.9679673 ], [ 80.8267811, 24.9698351 ], [ 80.8563386, 24.9943449 ], [ 80.8348628, 25.0353356 ], [ 80.8788649, 25.0672027 ], [ 80.8732285, 25.1197451 ], [ 80.9132045, 25.156404 ], [ 80.8863578, 25.1916447 ], [ 80.8445777, 25.1886977 ], [ 80.8359344, 25.1063886 ], [ 80.8078256, 25.1424541 ], [ 80.7463055, 25.1305999 ], [ 80.7312802, 25.1447563 ], [ 80.7078503, 25.1331096 ], [ 80.7335672, 25.1188867 ], [ 80.7334298, 25.0939834 ], [ 80.7841793, 25.0803698 ], [ 80.7841121, 25.0577856 ], [ 80.7353654, 25.0678731 ], [ 80.6817099, 25.0501995 ], [ 80.6874316, 25.0778288 ], [ 80.6644595, 25.0704425 ], [ 80.6433938, 25.0935232 ], [ 80.6281925, 25.0855466 ], [ 80.6095103, 25.1003484 ], [ 80.6405624, 25.1192213 ], [ 80.6027803, 25.1511326 ], [ 80.609615300000016, 25.1187342 ], [ 80.5959411, 25.1050226 ], [ 80.6149141, 25.068148 ], [ 80.5705681, 25.0873717 ], [ 80.5515361, 25.0635906 ], [ 80.5176235, 25.0969087 ], [ 80.4825799, 25.0976917 ], [ 80.5080898, 25.0854469 ], [ 80.5022683, 25.0412476 ], [ 80.548479, 25.0317534 ], [ 80.5503044, 25.0026509 ], [ 80.521470800000017, 25.0087119 ], [ 80.4813181, 24.976282 ], [ 80.4603241, 24.9826131 ], [ 80.4662462, 25.0000987 ], [ 80.433644, 25.0265552 ], [ 80.4543545, 25.0411886 ], [ 80.501741700000011, 25.0375159 ], [ 80.4782421, 25.0405895 ], [ 80.4487859, 25.0779227 ], [ 80.4179803, 25.072566 ], [ 80.4133047, 25.0566915 ], [ 80.4021867, 25.0678554 ], [ 80.3737929, 25.0535837 ], [ 80.3954029, 25.00831 ], [ 80.3808347, 25.0042084 ], [ 80.3668476, 25.0219318 ], [ 80.322085199999989, 24.9993568 ], [ 80.2748987, 25.0260351 ], [ 80.2895592, 25.0558242 ], [ 80.311397, 25.0431006 ], [ 80.3530714, 25.0543689 ], [ 80.3500461, 25.0892567 ], [ 80.3768751, 25.1111379 ], [ 80.3556039, 25.1257723 ], [ 80.359377, 25.1406444 ], [ 80.4318224, 25.1699054 ], [ 80.4072343, 25.2386617 ], [ 80.3861986, 25.2331971 ], [ 80.3491519, 25.2742221 ], [ 80.3122039, 25.2844839 ], [ 80.3189921, 25.3828423 ], [ 80.2641281, 25.4241667 ], [ 80.2534257, 25.4003617 ], [ 80.2021554, 25.4116593 ], [ 80.1960878, 25.3791137 ], [ 80.1673549, 25.3730886 ], [ 80.1314404, 25.3338866 ], [ 80.09142150000001, 25.3512499 ], [ 80.0781383, 25.3385204 ], [ 80.028835, 25.3385535 ], [ 80.0047402, 25.2640941 ], [ 79.9505672, 25.2672896 ], [ 79.9214124, 25.2288719 ], [ 79.9103521, 25.2523181 ], [ 79.855055299999989, 25.2355898 ], [ 79.8800437, 25.1439816 ], [ 79.8554945, 25.1288658 ], [ 79.8570241, 25.0924842 ], [ 79.7534263, 25.1392957 ], [ 79.6739046, 25.1225049 ], [ 79.6277536, 25.138018 ], [ 79.6055794, 25.1267852 ], [ 79.6105168, 25.1500993 ], [ 79.5974044, 25.1426139 ], [ 79.5732333, 25.172849 ], [ 79.4974611, 25.0780911 ], [ 79.4681077, 25.0916544 ], [ 79.4760044, 25.1297424 ], [ 79.4386423, 25.1027975 ], [ 79.4387352, 25.1306681 ], [ 79.4227, 25.1343627 ], [ 79.4067008, 25.108738 ], [ 79.3914596, 25.1655098 ], [ 79.4172007, 25.2039654 ], [ 79.4503605, 25.2077756 ], [ 79.434677, 25.2202498 ], [ 79.466896, 25.2646384 ], [ 79.4981432, 25.2655436 ], [ 79.4651529, 25.2790474 ], [ 79.4229892, 25.2543947 ], [ 79.3751108, 25.2894504 ], [ 79.3733811, 25.2632207 ], [ 79.360619, 25.2605267 ], [ 79.357378, 25.2835534 ], [ 79.338408, 25.2891669 ], [ 79.3535714, 25.3281282 ], [ 79.3118972, 25.3349237 ], [ 79.26776, 25.3053191 ], [ 79.2640936, 25.2745687 ], [ 79.2787175, 25.2616146 ], [ 79.2953661, 25.2853458 ], [ 79.3222992, 25.2565276 ], [ 79.3477278, 25.2678922 ], [ 79.3487448, 25.2256519 ], [ 79.3367224, 25.2250669 ], [ 79.3545572, 25.2094174 ], [ 79.3401687, 25.1960159 ], [ 79.332940900000011, 25.2176013 ], [ 79.3183565, 25.2146428 ], [ 79.2811716, 25.2432526 ], [ 79.2863453, 25.1925668 ], [ 79.2938215, 25.1829462 ], [ 79.3109821, 25.200081 ], [ 79.304672, 25.1741854 ], [ 79.3220861, 25.1470912 ], [ 79.2840313, 25.1154824 ], [ 79.2655562, 25.1192347 ], [ 79.2533251, 25.1571449 ], [ 79.2213585, 25.1435564 ], [ 79.2510059, 25.1359838 ], [ 79.2458274, 25.1115749 ], [ 79.2137956, 25.1089576 ], [ 79.1922968, 25.1462912 ], [ 79.1741809, 25.13751 ], [ 79.1867159, 25.1128774 ], [ 79.1317088, 25.1070343 ], [ 79.1151879, 25.1388434 ], [ 79.1278297, 25.1593057 ], [ 79.091695, 25.1876259 ], [ 79.0503736, 25.1332741 ], [ 79.0290778, 25.1382996 ], [ 79.043129, 25.1689913 ], [ 79.031949, 25.1816486 ], [ 79.0638477, 25.2207792 ], [ 79.019506800000016, 25.2432719 ], [ 79.0123875, 25.2719814 ], [ 78.9941673, 25.2699634 ], [ 78.9785223, 25.2399463 ], [ 79.0020455, 25.2287932 ], [ 79.0031441, 25.1910096 ], [ 78.9556517, 25.2152108 ], [ 78.8843576, 25.1572293 ], [ 78.879472, 25.2457812 ], [ 78.8989875, 25.2404647 ], [ 78.9225598, 25.2706833 ], [ 78.9535352, 25.2587746 ], [ 78.954914, 25.2786878 ], [ 78.9774393, 25.2802074 ], [ 78.9601908, 25.3068448 ], [ 78.963209300000017, 25.3427112 ], [ 78.93501, 25.3266601 ], [ 78.9262812, 25.3409319 ], [ 78.883877, 25.3393875 ], [ 78.8637582, 25.3119026 ], [ 78.8797448, 25.2831772 ], [ 78.8490013, 25.2241622 ], [ 78.8128695, 25.265889 ], [ 78.8189558, 25.2947846 ], [ 78.7984768, 25.2879557 ], [ 78.7905438, 25.2981117 ], [ 78.8508394, 25.3272925 ], [ 78.8450851, 25.3470817 ], [ 78.8821554, 25.3825592 ], [ 78.9568263, 25.3950799 ], [ 78.9385763, 25.3720458 ], [ 78.8998674, 25.3702181 ], [ 78.936051, 25.346743 ], [ 78.9859775, 25.37095 ], [ 78.9676461, 25.4337833 ], [ 78.9366212, 25.4232235 ], [ 78.9107046, 25.4418114 ], [ 78.943163, 25.4748788 ], [ 78.9239371, 25.5155758 ], [ 78.9494789, 25.5259763 ], [ 78.9492996, 25.5462533 ], [ 78.933264, 25.5547656 ], [ 78.9244084, 25.536106 ], [ 78.9179456, 25.5541396 ] ] ] } },
{ "type": "Feature", "properties": { "PILOT_ID": "P1", "FEATURE_ID": "AESR_02_1_P01", "AESR_UID": "AESR_02_1", "aesr_code": "2.1", "aer_code": 2, "subregion": "Marusthali (Western Plain)", "CLIM_STD": "Hyper-arid", "lgp_ref": "< 60 days", "SOIL_GRP": "Desert", "AWC_REF": "Very Low", "AREA_KM2": 125091.17141600991, "PILOT_ROLE": "Hyper-arid reference system", "EVIDENCE_LEVEL": "E2 - Preliminary derived evidence" }, "geometry": { "type": "Polygon", "coordinates": [ [ [ 74.4376032, 29.9494042 ], [ 74.3483173, 30.1762977 ], [ 74.2988711, 30.2653751 ], [ 74.1269997, 30.2864847 ], [ 73.967971, 30.2611577 ], [ 73.9759122, 30.1964342 ], [ 73.8032116, 30.0713906 ], [ 73.6199807, 30.0246304 ], [ 73.3997113, 29.9406888 ], [ 73.2786709, 29.5596968 ], [ 73.0956762, 29.2520611 ], [ 72.9988058, 29.1426904 ], [ 72.9474066, 29.0303997 ], [ 72.716398, 28.9389098 ], [ 72.3888639, 28.7687992 ], [ 72.3021159, 28.6734316 ], [ 72.2052064, 28.3903582 ], [ 72.128713, 28.3087977 ], [ 71.999083, 28.2141127 ], [ 71.9350392, 28.1326943 ], [ 71.898657, 27.9632137 ], [ 71.6588505, 27.8755654 ], [ 71.409752, 27.8734683 ], [ 71.2726311, 27.8501777 ], [ 70.882538, 27.7082261 ], [ 70.7678548, 27.7248987 ], [ 70.7445889, 27.7430515 ], [ 70.6874448, 27.8281503 ], [ 70.6770137, 27.9239492 ], [ 70.592453, 28.0096449 ], [ 70.4967233, 28.0365826 ], [ 70.3743144, 28.0120315 ], [ 70.31026, 27.9488792 ], [ 70.224887, 27.8983861 ], [ 70.134689, 27.807024 ], [ 70.0246474, 27.5613169 ], [ 69.9407873, 27.5024923 ], [ 69.8716669, 27.4091842 ], [ 69.5896852, 27.182938 ], [ 69.5141666, 27.0095603 ], [ 69.4843653, 26.8080019 ], [ 69.5068792, 26.7507797 ], [ 69.7109035, 26.6619974 ], [ 69.8044371, 26.5976358 ], [ 69.879365, 26.5805617 ], [ 70.064332, 26.6001752 ], [ 70.1178597, 26.5883954 ], [ 70.1732995, 26.5510992 ], [ 70.1841913, 26.3754416 ], [ 70.1657016, 26.300887 ], [ 70.1740147, 26.2420037 ], [ 70.1474617, 26.1703637 ], [ 70.0864149, 26.0878573 ], [ 70.0992715, 25.9354616 ], [ 70.168784, 25.8304838 ], [ 70.2353911, 25.7768703 ], [ 70.2760591, 25.7092609 ], [ 70.3907328, 25.673558 ], [ 70.5277741, 25.6858673 ], [ 70.6089455, 25.7154281 ], [ 70.6579824, 25.7058055 ], [ 70.6731146, 25.6692333 ], [ 70.6677729, 25.5322492 ], [ 70.6794527, 25.5256603 ], [ 70.6653378, 25.3975728 ], [ 70.7354652, 25.3288481 ], [ 70.7575762, 25.2726958 ], [ 70.8855189, 25.1511741 ], [ 70.9363088, 24.9412842 ], [ 71.0143555, 24.8275243 ], [ 71.0634962, 24.7180805 ], [ 71.1099736, 24.6745264 ], [ 71.2233682, 24.6359234 ], [ 71.2544371, 24.7936602 ], [ 71.4021889, 24.9425394 ], [ 71.6010324, 25.0120457 ], [ 71.8397113, 25.1321819 ], [ 72.0162673, 25.3950732 ], [ 72.0876004, 25.4572655 ], [ 72.4084093, 25.4830593 ], [ 72.5454422, 25.5287201 ], [ 72.7777101, 25.7932464 ], [ 72.800048, 25.9697832 ], [ 72.7782531, 26.1637498 ], [ 72.7818453, 26.290634 ], [ 72.8273215, 26.6338177 ], [ 72.9153991, 26.8034525 ], [ 73.1735435, 27.0486515 ], [ 73.1961328, 27.2346432 ], [ 73.269606400000015, 27.2864797 ], [ 73.3560703, 27.2998842 ], [ 73.4162265, 27.3997532 ], [ 73.5843994, 27.5234734 ], [ 73.7037447, 27.5380078 ], [ 73.7742312, 27.6575665 ], [ 73.7779081, 27.8036425 ], [ 73.6663848, 28.0618368 ], [ 73.6988866, 28.2867615 ], [ 73.8170497, 28.3400021 ], [ 74.0254088, 28.3479601 ], [ 74.1190758, 28.4583525 ], [ 74.1190501, 28.6915357 ], [ 74.1479297, 28.7800176 ], [ 74.2332718, 28.8413914 ], [ 74.3852407, 28.8953518 ], [ 74.4580223, 28.9949811 ], [ 74.6198662, 29.3269506 ], [ 74.6043447, 29.3271853 ], [ 74.60533980000001, 29.36108590000001 ], [ 74.566499, 29.4176661 ], [ 74.5399771, 29.424088 ], [ 74.5378195, 29.4486779 ], [ 74.5515787, 29.4656898 ], [ 74.5876986, 29.4576461 ], [ 74.6233635, 29.5261174 ], [ 74.5755116, 29.562643 ], [ 74.6147946, 29.7521142 ], [ 74.5960512, 29.7678035 ], [ 74.535123, 29.7407831 ], [ 74.4812369, 29.7435804 ], [ 74.4799113, 29.8016028 ], [ 74.5010986, 29.8260921 ], [ 74.5420297, 29.8387837 ], [ 74.5613935, 29.8730014 ], [ 74.543317500000015, 29.9021767 ], [ 74.5146406, 29.9073927 ], [ 74.5287461, 29.9429879 ], [ 74.4376032, 29.9494042 ] ] ] } }
]
}
